NORAD_CAT_ID,OBJECT_NAME,OBJECT_TYPE,EPOCH,MEAN_MOTION,ECCENTRICITY,INCLINATION,RA_OF_ASC_NODE,ARG_OF_PERICENTER,MEAN_ANOMALY,BSTAR,MEAN_MOTION_DOT,MEAN_MOTION_DDOT,TLE_LINE0,TLE_LINE1,TLE_LINE2,SEMIMAJOR_AXIS,PERIOD,APOGEE,PERIGEE,DECAYED
53396.0,STARLINK-4524,PAYLOAD,2023-04-09 08:20:28,15.08841651,0.0001708,53.2158,226.6299,82.3039,277.8147,4.3001e-05,3.96e-06,0.0,0 STARLINK-4524,1 53396U 22097J   23099.34755775  .00000396  00000-0  43001-4 0  9992,2 53396  53.2158 226.6299 0001708  82.3039 277.8147 15.08841651 37688,6917.875,95.437,540.922,538.559,0.0
53396.0,STARLINK-4524,PAYLOAD,2023-04-09 14:42:01,15.0884252,0.0001555,53.2159,225.4405,79.4534,280.6633,8.1523e-05,1.01e-05,0.0,0 STARLINK-4524,1 53396U 22097J   23099.61251749  .00001010  00000-0  81523-4 0  9999,2 53396  53.2159 225.4405 0001555  79.4534 280.6633 15.08842520 37231,6917.873,95.437,540.813,538.662,0.0
53396.0,STARLINK-4524,PAYLOAD,2023-04-10 08:11:16,15.08842335,0.0001651,53.2155,222.1702,79.9971,280.1207,0.00017751,2.538e-05,0.0,0 STARLINK-4524,1 53396U 22097J   23100.34115854  .00002538  00000-0  17751-3 0  9995,2 53396  53.2155 222.1702 0001651  79.9971 280.1207 15.08842335 37830,6917.873,95.437,540.88,538.596,0.0
53396.0,STARLINK-4524,PAYLOAD,2023-04-11 11:12:49,15.08841525,0.0001289,53.2144,217.1118,105.0828,255.0307,0.0004202,6.406e-05,0.0,0 STARLINK-4524,1 53396U 22097J   23101.46723509  .00006406  00000-0  42020-3 0  9996,2 53396  53.2144 217.1118 0001289 105.0828 255.0307 15.08841525 37519,6917.876,95.437,540.632,538.849,0.0
53396.0,STARLINK-4524,PAYLOAD,2023-04-12 11:03:36,15.08835899,0.0001165,53.217,212.6529,113.0419,247.0697,0.00013866,1.919e-05,0.0,0 STARLINK-4524,1 53396U 22097J   23102.46083362  .00001919  00000-0  13866-3 0  9993,2 53396  53.2170 212.6529 0001165 113.0419 247.0697 15.08835899 37668,6917.893,95.438,540.564,538.952,0.0
53396.0,STARLINK-4524,PAYLOAD,2023-04-12 14:14:22,15.08842578,7.83e-05,53.2165,212.0579,91.746,268.3622,0.00012563,1.712e-05,0.0,0 STARLINK-4524,1 53396U 22097J   23102.59331037  .00001712  00000-0  12563-3 0  9996,2 53396  53.2165 212.0579 0000783  91.7460 268.3622 15.08842578 38177,6917.873,95.437,540.279,539.196,0.0
53396.0,STARLINK-4524,PAYLOAD,2023-04-13 07:43:37,15.0883502,0.000126,53.2181,208.7878,103.5868,256.5265,3.2034e-05,2.22e-06,0.0,0 STARLINK-4524,1 53396U 22097J   23103.32195658  .00000222  00000-0  32034-4 0  9996,2 53396  53.2181 208.7878 0001260 103.5868 256.5265 15.08835020 38282,6917.896,95.438,540.632,538.889,0.0
53396.0,STARLINK-4524,PAYLOAD,2023-04-13 17:15:55,15.08840047,9.57e-05,53.215,207.0014,92.4632,267.647,7.4903e-05,9.05e-06,0.0,0 STARLINK-4524,1 53396U 22097J   23103.71939226  .00000905  00000-0  74903-4 0  9995,2 53396  53.2150 207.0014 0000957  92.4632 267.6470 15.08840047 37857,6917.88,95.438,540.407,539.083,0.0
53396.0,STARLINK-4524,PAYLOAD,2023-04-14 07:34:24,15.08831475,7.01e-05,53.2159,204.3261,78.6536,281.4535,-1.1332e-05,-4.68e-06,0.0,0 STARLINK-4524,1 53396U 22097J   23104.31556370 -.00000468  00000-0 -11332-4 0  9990,2 53396  53.2159 204.3261 0000701  78.6536 281.4535 15.08831475 37947,6917.906,95.438,540.256,539.287,0.0
53396.0,STARLINK-4524,PAYLOAD,2023-04-14 12:20:33,15.08835445,8.35e-05,53.2146,203.434,76.6201,283.4884,8.5372e-05,1.071e-05,0.0,0 STARLINK-4524,1 53396U 22097J   23104.51427999  .00001071  00000-0  85372-4 0  9990,2 53396  53.2146 203.4340 0000835  76.6201 283.4884 15.08835445 38464,6917.894,95.438,540.337,539.182,0.0
53396.0,STARLINK-4524,PAYLOAD,2023-04-15 05:49:48,15.08836104,0.0001139,53.2164,200.1646,89.421,270.6912,0.00016519,2.342e-05,0.0,0 STARLINK-4524,1 53396U 22097J   23105.24292006  .00002342  00000-0  16519-3 0  9998,2 53396  53.2164 200.1646 0001139  89.4210 270.6912 15.08836104 38088,6917.892,95.438,540.545,538.969,0.0
53396.0,STARLINK-4524,PAYLOAD,2023-04-15 13:46:43,15.08844458,0.0001042,53.2155,198.6772,78.9894,281.1216,0.00016383,2.321e-05,0.0,0 STARLINK-4524,1 53396U 22097J   23105.57411593  .00002321  00000-0  16383-3 0  9994,2 53396  53.2155 198.6772 0001042  78.9894 281.1216 15.08844458 38628,6917.867,95.437,540.453,539.011,0.0
53396.0,STARLINK-4524,PAYLOAD,2023-04-16 13:37:30,15.08848461,9.5e-05,53.2167,194.2163,78.0906,282.0193,0.00012325,1.675e-05,0.0,0 STARLINK-4524,1 53396U 22097J   23106.56771443  .00001675  00000-0  12325-3 0  9990,2 53396  53.2167 194.2163 0000950  78.0906 282.0193 15.08848461 38283,6917.855,95.437,540.377,539.062,0.0
53396.0,STARLINK-4524,PAYLOAD,2023-04-17 11:52:55,15.08842675,0.0001282,53.2157,190.0505,90.6055,269.5084,-2.8117e-05,-7.35e-06,0.0,0 STARLINK-4524,1 53396U 22097J   23107.49508199 -.00000735  00000-0 -28117-4 0  9994,2 53396  53.2157 190.0505 0001282  90.6055 269.5084 15.08842675 38426,6917.872,95.437,540.624,538.85,0.0
53396.0,STARLINK-4524,PAYLOAD,2023-04-17 15:03:40,15.08847562,0.0001267,53.2155,189.4545,98.1223,261.9913,1.0182e-06,-2.72e-06,0.0,0 STARLINK-4524,1 53396U 22097J   23107.62755736 -.00000272  00000-0  10182-5 0  9999,2 53396  53.2155 189.4545 0001267  98.1223 261.9913 15.08847562 38936,6917.857,95.437,540.599,538.846,0.0
53396.0,STARLINK-4524,PAYLOAD,2023-04-18 10:08:19,15.08837781,0.0001105,53.2151,185.8882,93.0906,267.0212,-4.3767e-06,-3.57e-06,0.0,0 STARLINK-4524,1 53396U 22097J   23108.42244456 -.00000357  00000-0 -43767-5 0  9990,2 53396  53.2151 185.8882 0001105  93.0906 267.0212 15.08837781 39054,6917.887,95.438,540.517,538.988,0.0
53396.0,STARLINK-4524,PAYLOAD,2023-04-18 16:29:50,15.08849623,0.0001257,53.2163,184.6985,95.2571,264.8564,4.8263e-05,4.8e-06,0.0,0 STARLINK-4524,1 53396U 22097J   23108.68739537  .00000480  00000-0  48263-4 0  9997,2 53396  53.2163 184.6985 0001257  95.2571 264.8564 15.08849623 39095,6917.851,95.437,540.586,538.846,0.0
53396.0,STARLINK-4524,PAYLOAD,2023-04-19 05:12:57,15.08829664,0.0001397,53.2148,182.3214,82.1897,277.9254,5.7968e-05,6.35e-06,0.0,0 STARLINK-4524,1 53396U 22097J   23109.21733086  .00000635  00000-0  57968-4 0  9994,2 53396  53.2148 182.3214 0001397  82.1897 277.9254 15.08829664 38687,6917.912,95.438,540.743,538.811,0.0
53396.0,STARLINK-4524,PAYLOAD,2023-04-19 08:23:43,15.08831582,0.0001414,53.2145,181.7278,76.1638,283.9512,7.7236e-05,9.41e-06,0.0,0 STARLINK-4524,1 53396U 22097J   23109.34981011  .00000941  00000-0  77236-4 0  9991,2 53396  53.2145 181.7278 0001414  76.1638 283.9512 15.08831582 39196,6917.906,95.438,540.749,538.793,0.0
53396.0,STARLINK-4524,PAYLOAD,2023-04-19 16:20:38,15.08848914,0.0001238,53.2152,180.237,95.904,264.2094,0.00010181,1.333e-05,0.0,0 STARLINK-4524,1 53396U 22097J   23109.68099698  .00001333  00000-0  10181-3 0  9990,2 53396  53.2152 180.2370 0001238  95.9040 264.2094 15.08848914 39241,6917.853,95.437,540.575,538.862,0.0
53396.0,STARLINK-4524,PAYLOAD,2023-04-20 13:00:39,15.08848829,0.000112,53.2157,176.3721,100.4396,259.6722,7.4976e-05,9.06e-06,0.0,0 STARLINK-4524,1 53396U 22097J   23110.54212049  .00000906  00000-0  74976-4 0  9992,2 53396  53.2157 176.3721 0001120 100.4396 259.6722 15.08848829 39373,6917.853,95.437,540.493,538.944,0.0
53396.0,STARLINK-4524,PAYLOAD,2023-04-21 04:54:32,15.08827422,0.0001263,53.2154,173.3983,93.2585,266.8551,8.183e-05,1.014e-05,0.0,0 STARLINK-4524,1 53396U 22097J   23111.20453787  .00001014  00000-0  81830-4 0  9990,2 53396  53.2154 173.3983 0001263  93.2585 266.8551 15.08827422 38986,6917.919,95.438,540.658,538.91,0.0
53396.0,STARLINK-4524,PAYLOAD,2023-04-21 11:16:04,15.08836711,0.0001117,53.2155,172.2097,91.6735,268.4385,4.0371e-05,3.55e-06,0.0,0 STARLINK-4524,1 53396U 22097J   23111.46949381  .00000355  00000-0  40371-4 0  9990,2 53396  53.2155 172.2097 0001117  91.6735 268.4385 15.08836711 39028,6917.89,95.438,540.528,538.983,0.0
53396.0,STARLINK-4524,PAYLOAD,2023-04-21 20:48:22,15.0884027,0.0001124,53.2142,170.4255,82.5699,277.5421,8.3282e-06,-1.55e-06,0.0,0 STARLINK-4524,1 53396U 22097J   23111.86692972 -.00000155  00000-0  83282-5 0  9993,2 53396  53.2142 170.4255 0001124  82.5699 277.5421 15.08840270 39573,6917.88,95.438,540.522,538.967,0.0
53396.0,STARLINK-4524,PAYLOAD,2023-04-22 12:42:13,15.08854321,0.0001122,53.2141,167.4516,94.4908,265.6212,0.00025653,3.799e-05,0.0,0 STARLINK-4524,1 53396U 22097J   23112.52932309  .00003799  00000-0  25653-3 0  9990,2 53396  53.2141 167.4516 0001122  94.4908 265.6212 15.08854321 39186,6917.837,95.437,540.478,538.925,0.0
53396.0,STARLINK-4524,PAYLOAD,2023-04-23 12:33:01,15.08840926,0.0001077,53.2135,162.9904,81.6195,278.492,0.00010248,1.344e-05,0.0,0 STARLINK-4524,1 53396U 22097J   23113.52293213  .00001344  00000-0  10248-3 0  9993,2 53396  53.2135 162.9904 0001077  81.6195 278.4920 15.08840926 39820,6917.878,95.437,540.488,538.998,0.0
53396.0,STARLINK-4524,PAYLOAD,2023-04-24 02:51:29,15.08850444,0.0001272,53.2138,160.3144,77.3682,282.7453,0.00023053,3.384e-05,0.0,0 STARLINK-4524,1 53396U 22097J   23114.11908847  .00003384  00000-0  23053-3 0  9999,2 53396  53.2138 160.3144 0001272  77.3682 282.7453 15.08850444 39916,6917.848,95.437,540.593,538.834,0.0
53396.0,STARLINK-4524,PAYLOAD,2023-04-25 12:14:35,15.08822531,0.0001398,53.2131,154.0699,100.5731,259.5418,-0.00034444,-5.763e-05,0.0,0 STARLINK-4524,1 53396U 22097J   23115.51012899 -.00005763  00000-0 -34444-3 0  9998,2 53396  53.2131 154.0699 0001398 100.5731 259.5418 15.08822531 40121,6917.934,95.439,540.766,538.832,0.0
53396.0,STARLINK-4524,PAYLOAD,2023-04-26 12:05:23,15.088323,0.0001403,53.2142,149.6089,99.7021,260.413,0.00048432,7.427e-05,0.0,0 STARLINK-4524,1 53396U 22097J   23116.50373963  .00007427  00000-0  48432-3 0  9999,2 53396  53.2142 149.6089 0001403  99.7021 260.4130 15.08832300 40277,6917.904,95.438,540.74,538.798,0.0
53396.0,STARLINK-4524,PAYLOAD,2023-04-26 13:40:46,15.08834605,0.00014,53.2142,149.3117,99.1675,260.9475,0.00051575,7.929e-05,0.0,0 STARLINK-4524,1 53396U 22097J   23116.56997958  .00007929  00000-0  51575-3 0  9990,2 53396  53.2142 149.3117 0001400  99.1675 260.9475 15.08834605 40280,6917.897,95.438,540.73,538.793,0.0
